NORAD_CAT_ID,OBJECT_NAME,OBJECT_TYPE,EPOCH,MEAN_MOTION,ECCENTRICITY,INCLINATION,RA_OF_ASC_NODE,ARG_OF_PERICENTER,MEAN_ANOMALY,BSTAR,MEAN_MOTION_DOT,MEAN_MOTION_DDOT,TLE_LINE0,TLE_LINE1,TLE_LINE2,SEMIMAJOR_AXIS,PERIOD,APOGEE,PERIGEE,DECAYED
54811.0,STARLINK-5424,PAYLOAD,2024-01-30 13:01:41,15.08799643,0.0001541,53.2164,237.0001,91.6867,268.4301,0.00055178,8.495e-05,0.0,0 STARLINK-5424,1 54811U 22175BF  24030.54283922  .00008495  00000-0  55178-3 0  9995,2 54811  53.2164 237.0001 0001541  91.6867 268.4301 15.08799643 64087,6918.004,95.44,540.935,538.803,0.0
54811.0,STARLINK-5424,PAYLOAD,2024-01-30 19:23:13,15.08838951,0.0001364,53.2163,235.8092,83.7529,276.3619,3.2784e-05,2.34e-06,0.0,0 STARLINK-5424,1 54811U 22175BF  24030.80779889  .00000234  00000-0  32784-4 0  9998,2 54811  53.2163 235.8092 0001364  83.7529 276.3619 15.08838951 61962,6917.884,95.438,540.692,538.805,0.0
54811.0,STARLINK-5424,PAYLOAD,2024-01-30 20:58:37,15.08837644,0.0001353,53.2161,235.512,83.8162,276.2984,1.9229e-05,1.8e-07,0.0,0 STARLINK-5424,1 54811U 22175BF  24030.87403985  .00000018  00000-0  19229-4 0  9995,2 54811  53.2161 235.5120 0001353  83.8162 276.2984 15.08837644 64135,6917.888,95.438,540.689,538.817,0.0
54811.0,STARLINK-5424,PAYLOAD,2024-01-31 00:09:23,15.08838313,0.0001331,53.216,234.9171,86.5124,273.602,1.6633e-05,-2.3e-07,0.0,0 STARLINK-5424,1 54811U 22175BF  24031.00651943 -.00000023  00000-0  16633-4 0  9993,2 54811  53.2160 234.9171 0001331  86.5124 273.6020 15.08838313 64155,6917.886,95.438,540.671,538.83,0.0
54811.0,STARLINK-5424,PAYLOAD,2024-01-31 22:24:47,15.08836811,0.0001369,53.2163,230.754,86.8572,273.2577,3.5384e-05,2.75e-06,0.0,0 STARLINK-5424,1 54811U 22175BF  24031.93388137  .00000275  00000-0  35384-4 0  9999,2 54811  53.2163 230.7540 0001369  86.8572 273.2577 15.08836811 64292,6917.89,95.438,540.702,538.808,0.0
54811.0,STARLINK-5424,PAYLOAD,2024-02-01 12:43:15,15.08839131,0.0001235,53.2156,228.0773,94.4912,265.6221,6.3252e-05,7.19e-06,0.0,0 STARLINK-5424,1 54811U 22175BF  24032.53003908  .00000719  00000-0  63252-4 0  9994,2 54811  53.2156 228.0773 0001235  94.4912 265.6221 15.08839131 64386,6917.883,95.438,540.602,538.894,0.0
54811.0,STARLINK-5424,PAYLOAD,2024-02-01 14:18:38,15.08840423,0.000132,53.2155,227.7805,88.7091,271.4052,8.2027e-05,1.018e-05,0.0,0 STARLINK-5424,1 54811U 22175BF  24032.59627791  .00001018  00000-0  82027-4 0  9996,2 54811  53.2155 227.7805 0001320  88.7091 271.4052 15.08840423 64390,6917.879,95.438,540.657,538.831,0.0
54811.0,STARLINK-5424,PAYLOAD,2024-02-02 12:34:02,15.08839078,0.0001303,53.2154,223.6181,85.4088,274.7053,6.8867e-05,8.08e-06,0.0,0 STARLINK-5424,1 54811U 22175BF  24033.52363957  .00000808  00000-0  68867-4 0  9993,2 54811  53.2154 223.6181 0001303  85.4088 274.7053 15.08839078 62379,6917.883,95.438,540.65,538.847,0.0
54811.0,STARLINK-5424,PAYLOAD,2024-02-02 18:55:35,15.08840684,0.0001345,53.2156,222.4284,85.3065,274.808,3.143e-05,2.12e-06,0.0,0 STARLINK-5424,1 54811U 22175BF  24033.78860031  .00000212  00000-0  31430-4 0  9991,2 54811  53.2156 222.4284 0001345  85.3065 274.8080 15.08840684 64572,6917.878,95.438,540.674,538.813,0.0
54811.0,STARLINK-5424,PAYLOAD,2024-02-03 18:46:21,15.08841651,0.0001318,53.2158,217.9677,85.729,274.3853,4.414e-05,4.15e-06,0.0,0 STARLINK-5424,1 54811U 22175BF  24034.78219904  .00000415  00000-0  44140-4 0  9996,2 54811  53.2158 217.9677 0001318  85.7290 274.3853 15.08841651 62568,6917.875,95.437,540.652,538.829,0.0
54811.0,STARLINK-5424,PAYLOAD,2024-02-03 21:57:08,15.08842399,0.0001325,53.2155,217.3726,84.9229,275.1915,4.7873e-05,4.74e-06,0.0,0 STARLINK-5424,1 54811U 22175BF  24034.91467795  .00000474  00000-0  47873-4 0  9995,2 54811  53.2155 217.3726 0001325  84.9229 275.1915 15.08842399 64745,6917.873,95.437,540.655,538.821,0.0
54811.0,STARLINK-5424,PAYLOAD,2024-02-04 21:47:55,15.08840809,0.0001367,53.2165,212.9106,86.8707,273.2441,3.7144e-05,3.03e-06,0.0,0 STARLINK-5424,1 54811U 22175BF  24035.90827935  .00000303  00000-0  37144-4 0  9992,2 54811  53.2165 212.9106 0001367  86.8707 273.2441 15.08840809 64890,6917.878,95.438,540.689,538.797,0.0
54811.0,STARLINK-5424,PAYLOAD,2024-02-05 12:06:23,15.08836847,0.0001375,53.2167,210.2334,87.3315,272.7834,1.2947e-05,-8.2e-07,0.0,0 STARLINK-5424,1 54811U 22175BF  24036.50444378 -.00000082  00000-0  12947-4 0  9994,2 54811  53.2167 210.2334 0001375  87.3315 272.7834 15.08836847 64983,6917.89,95.438,540.706,538.804,0.0
54811.0,STARLINK-5424,PAYLOAD,2024-02-05 16:52:33,15.08838841,0.0001375,53.2167,209.3414,87.1212,272.9938,2.7908e-05,1.56e-06,0.0,0 STARLINK-5424,1 54811U 22175BF  24036.70316227  .00000156  00000-0  27908-4 0  9991,2 54811  53.2167 209.3414 0001375  87.1212 272.9938 15.08838841 65013,6917.884,95.438,540.7,538.798,0.0
54811.0,STARLINK-5424,PAYLOAD,2024-02-06 10:21:48,15.08836249,0.000142,53.2171,206.0707,86.2078,273.9076,1.7001e-05,-1.7e-07,0.0,0 STARLINK-5424,1 54811U 22175BF  24037.43180590 -.00000017  00000-0  17001-4 0  9994,2 54811  53.2171 206.0707 0001420  86.2078 273.9076 15.08836249 62963,6917.892,95.438,540.739,538.775,0.0
54811.0,STARLINK-5424,PAYLOAD,2024-02-06 16:43:20,15.08840691,0.0001316,53.2163,204.8824,86.8268,273.2875,1.832e-05,4e-08,0.0,0 STARLINK-5424,1 54811U 22175BF  24037.69676320  .00000004  00000-0  18320-4 0  9993,2 54811  53.2163 204.8824 0001316  86.8268 273.2875 15.08840691 65162,6917.878,95.438,540.654,538.833,0.0
54811.0,STARLINK-5424,PAYLOAD,2024-02-07 16:34:07,15.08845864,0.0001978,53.2168,200.4024,36.6763,323.4365,6.0347e-05,6.73e-06,0.0,0 STARLINK-5424,1 54811U 22175BF  24038.69036640  .00000673  00000-0  60347-4 0  9997,2 54811  53.2168 200.4024 0001978  36.6763 323.4365 15.08845864 63154,6917.862,95.437,541.096,538.359,0.0
54811.0,STARLINK-5424,PAYLOAD,2024-02-08 14:49:32,15.08832964,0.000157,53.2177,196.2612,85.838,274.2791,4.9262e-05,4.96e-06,0.0,0 STARLINK-5424,1 54811U 22175BF  24039.61773194  .00000496  00000-0  49262-4 0  9998,2 54811  53.2177 196.2612 0001570  85.8380 274.2791 15.08832964 65456,6917.902,95.438,540.853,538.681,0.0
54811.0,STARLINK-5424,PAYLOAD,2024-02-08 18:00:18,15.08839817,0.0001388,53.2173,195.6664,89.397,270.7181,2.2211e-05,6.6e-07,0.0,0 STARLINK-5424,1 54811U 22175BF  24039.75021109  .00000066  00000-0  22211-4 0  9993,2 54811  53.2173 195.6664 0001388  89.3970 270.7181 15.08839817 63314,6917.881,95.438,540.706,538.786,0.0
54811.0,STARLINK-5424,PAYLOAD,2024-02-09 14:40:18,15.08844407,0.0001484,53.2175,191.8012,85.476,274.6401,0.00011969,1.618e-05,0.0,0 STARLINK-5424,1 54811U 22175BF  24040.61132423  .00001618  00000-0  11969-3 0  9993,2 54811  53.2175 191.8012 0001484  85.4760 274.6401 15.08844407 65605,6917.867,95.437,540.759,538.705,0.0
54811.0,STARLINK-5424,PAYLOAD,2024-02-09 16:15:41,15.08845758,0.0001493,53.2172,191.5036,85.5316,274.5847,0.00013352,1.838e-05,0.0,0 STARLINK-5424,1 54811U 22175BF  24040.67756299  .00001838  00000-0  13352-3 0  9994,2 54811  53.2172 191.5036 0001493  85.5316 274.5847 15.08845758 63457,6917.863,95.437,540.761,538.695,0.0
54811.0,STARLINK-5424,PAYLOAD,2024-02-10 14:31:05,15.08840457,0.0001507,53.2165,187.341,89.8971,270.2194,5.5797e-05,6e-06,0.0,0 STARLINK-5424,1 54811U 22175BF  24041.60492867  .00000600  00000-0  55797-4 0  9992,2 54811  53.2165 187.3410 0001507  89.8971 270.2194 15.08840457 65752,6917.879,95.438,540.787,538.701,0.0
54811.0,STARLINK-5424,PAYLOAD,2024-02-10 19:17:14,15.08846047,0.0001371,53.2172,186.4441,100.6167,259.498,4.1233e-05,3.68e-06,0.0,0 STARLINK-5424,1 54811U 22175BF  24041.80364421  .00000368  00000-0  41233-4 0  9999,2 54811  53.2172 186.4441 0001371 100.6167 259.4980 15.08846047 63629,6917.862,95.437,540.675,538.778,0.0
54811.0,STARLINK-5424,PAYLOAD,2024-02-11 09:35:43,15.08843163,0.0001612,53.2175,183.7656,113.7976,246.3185,-7.1312e-05,-1.423e-05,0.0,0 STARLINK-5424,1 54811U 22175BF  24042.39980982 -.00001423  00000-0 -71312-4 0  9996,2 54811  53.2175 183.7656 0001612 113.7976 246.3185 15.08843163 63719,6917.871,95.437,540.851,538.621,0.0
54811.0,STARLINK-5424,PAYLOAD,2024-02-11 14:21:52,15.088458,0.0001841,53.2165,182.8792,105.8686,254.2509,2.2518e-05,7e-07,0.0,0 STARLINK-5424,1 54811U 22175BF  24042.59852429  .00000070  00000-0  22518-4 0  9991,2 54811  53.2165 182.8792 0001841 105.8686 254.2509 15.08845800 65904,6917.863,95.437,541.001,538.454,0.0
54811.0,STARLINK-5424,PAYLOAD,2024-02-12 09:26:30,15.0884205,0.0001591,53.2178,179.3152,101.8021,258.315,3.0528e-05,1.98e-06,0.0,0 STARLINK-5424,1 54811U 22175BF  24043.39340768  .00000198  00000-0  30528-4 0  9999,2 54811  53.2178 179.3152 0001591 101.8021 258.3150 15.08842050 63864,6917.874,95.437,540.84,538.638,0.0
54811.0,STARLINK-5424,PAYLOAD,2024-02-12 14:12:39,15.08840453,0.0001552,53.2183,178.4226,106.5332,253.583,2.2535e-05,7.1e-07,0.0,0 STARLINK-5424,1 54811U 22175BF  24043.59212867  .00000071  00000-0  22535-4 0  9998,2 54811  53.2183 178.4226 0001552 106.5332 253.5830 15.08840453 66057,6917.879,95.438,540.818,538.67,0.0
54811.0,STARLINK-5424,PAYLOAD,2024-02-12 15:48:03,15.08841579,0.0001498,53.2182,178.1249,103.7033,256.4126,2.3299e-05,8.3e-07,0.0,0 STARLINK-5424,1 54811U 22175BF  24043.65836809  .00000083  00000-0  23299-4 0  9994,2 54811  53.2182 178.1249 0001498 103.7033 256.4126 15.08841579 66065,6917.876,95.437,540.777,538.704,0.0
54811.0,STARLINK-5424,PAYLOAD,2024-02-13 12:28:03,15.0884198,0.0001502,53.2186,174.2583,101.5877,258.5283,4.8379e-05,4.82e-06,0.0,0 STARLINK-5424,1 54811U 22175BF  24044.51948750  .00000482  00000-0  48379-4 0  9998,2 54811  53.2186 174.2583 0001502 101.5877 258.5283 15.08841980 64033,6917.874,95.437,540.778,538.7,0.0
54811.0,STARLINK-5424,PAYLOAD,2024-02-13 14:03:26,15.08842879,0.0001498,53.2185,173.9609,100.6148,259.5012,5.5717e-05,5.99e-06,0.0,0 STARLINK-5424,1 54811U 22175BF  24044.58572699  .00000599  00000-0  55717-4 0  9993,2 54811  53.2185 173.9609 0001498 100.6148 259.5012 15.08842879 66202,6917.872,95.437,540.773,538.7,0.0
